[{"OBJECT_NAME":"STARLINK-30113","OBJECT_ID":"2023-056F","EPOCH":"2026-03-09T22:00:01.999584","MEAN_MOTION":15.26733851,"ECCENTRICITY":0.00016214,"INCLINATION":42.9993,"RA_OF_ASC_NODE":207.2652,"ARG_OF_PERICENTER":290.656,"MEAN_ANOMALY":262.2282,"EPHEMERIS_TYPE":0,"CLASSIFICATION_TYPE":"U","NORAD_CAT_ID":56291,"ELEMENT_SET_NO":999,"REV_AT_EPOCH":572,"BSTAR":0.0014808701,"MEAN_MOTION_DOT":0.00039669,"MEAN_MOTION_DDOT":0},{"OBJECT_NAME":"KUIPER-00204","OBJECT_ID":"2025-301N","EPOCH":"2026-03-09T09:32:32.981280","MEAN_MOTION":15.260884,"ECCENTRICITY":0.00030716,"INCLINATION":51.887,"RA_OF_ASC_NODE":71.6415,"ARG_OF_PERICENTER":354.8934,"MEAN_ANOMALY":5.2016,"EPHEMERIS_TYPE":0,"CLASSIFICATION_TYPE":"U","NORAD_CAT_ID":67145,"ELEMENT_SET_NO":999,"REV_AT_EPOCH":1373,"BSTAR":0.00079568218,"MEAN_MOTION_DOT":0.00020516,"MEAN_MOTION_DDOT":0}]
